STARLINK-36878          
1 67899U 26035W   26058.25002315 -.00635010  15796-3 -71553-3 0  9996
2 67899  97.2807 349.7065 0000988 119.9931 189.8322 16.09312239  2074
STARLINK-36361          
1 67900U 26035X   26058.25002315 -.00634306  15792-3 -70862-3 0  9994
2 67900  97.2808 349.7068 0000830  99.6872 211.7479 16.09446302  2072
STARLINK-36336          
1 67901U 26035Y   26058.25002315 -.00617921  15120-3 -67297-3 0  9992
2 67901  97.2808 349.7087 0000886  91.0495 225.2227 16.09838337  2122
STARLINK-36876          
1 67902U 26035Z   26058.25002315 -.00629033  15571-3 -69780-3 0  9999
2 67902  97.2810 349.7080 0000944 116.3059 196.5486 16.09554691  2070
STARLINK-36257          
1 67903U 26035AA  26058.25002315 -.00617780  15079-3 -68041-3 0  9998
2 67903  97.2807 349.7077 0000797  95.4421 218.8959 16.09664849  2125
STARLINK-36814          
1 67904U 26036A   26058.25002315 -.01512716  67143-3 -35408-2 0  9993
2 67904  42.9971 314.0829 0002041 271.1077  77.5944 15.96123889  1974
STARLINK-36729          
1 67905U 26036B   26058.25002315 -.01501561  66320-3 -34906-2 0  9998
2 67905  42.9969 314.0792 0002071 276.0045  74.0634 15.96247863  1970
STARLINK-36763          
1 67906U 26036C   26058.25002315 -.01495621  65936-3 -34493-2 0  9991
2 67906  42.9969 314.0756 0002053 274.5711  76.9280 15.96392053  1974
STARLINK-36742          
1 67907U 26036D   26058.25002315 -.01480541  64805-3 -33900-2 0  9993
2 67907  42.9970 314.0723 0002062 271.5450  81.2428 15.96520925  1972
STARLINK-36827          
1 67908U 26036E   26058.25002315 -.01481832  65013-3 -33641-2 0  9992
2 67908  42.9970 314.0685 0002069 273.7113  80.6575 15.96676493  1975
STARLINK-36822          
1 67909U 26036F   26058.25002315 -.01475788  64622-3 -33239-2 0  9994
2 67909  42.9971 314.0648 0002059 272.3612  83.4519 15.96819572  1970
STARLINK-36847          
1 67910U 26036G   26058.25002315 -.01471133  64342-3 -32876-2 0  9991
2 67910  42.9971 314.0610 0002157 273.6154  83.6786 15.96960335  1977
