CCSDS_OMM_VERS = 2.0
CREATION_DATE  = 
ORIGINATOR     = 

OBJECT_NAME    = STARLINK-36878
OBJECT_ID      = 2026-035W
CENTER_NAME    = EARTH
REF_FRAME      = TEME
TIME_SYSTEM    = UTC
MEAN_ELEMENT_THEORY = SGP/SGP4

EPOCH          = 2026-02-27T06:00:02.000160
MEAN_MOTION    = 16.09312239
ECCENTRICITY   = .00009884
INCLINATION    = 97.2807
RA_OF_ASC_NODE = 349.7065
ARG_OF_PERICENTER = 119.9931
MEAN_ANOMALY   = 189.8322

EPHEMERIS_TYPE = 0
CLASSIFICATION_TYPE = U
NORAD_CAT_ID   = 67899
ELEMENT_SET_NO = 999
REV_AT_EPOCH   = 207
BSTAR          = -.7155294E-3
MEAN_MOTION_DOT = -.63501E-2
MEAN_MOTION_DDOT = .1579609E-3

CCSDS_OMM_VERS = 2.0
CREATION_DATE  = 
ORIGINATOR     = 

OBJECT_NAME    = STARLINK-36361
OBJECT_ID      = 2026-035X
CENTER_NAME    = EARTH
REF_FRAME      = TEME
TIME_SYSTEM    = UTC
MEAN_ELEMENT_THEORY = SGP/SGP4

EPOCH          = 2026-02-27T06:00:02.000160
MEAN_MOTION    = 16.09446302
ECCENTRICITY   = .00008302
INCLINATION    = 97.2808
RA_OF_ASC_NODE = 349.7068
ARG_OF_PERICENTER = 99.6872
MEAN_ANOMALY   = 211.7479

EPHEMERIS_TYPE = 0
CLASSIFICATION_TYPE = U
NORAD_CAT_ID   = 67900
ELEMENT_SET_NO = 999
REV_AT_EPOCH   = 207
BSTAR          = -.70861768E-3
MEAN_MOTION_DOT = -.634306E-2
MEAN_MOTION_DDOT = .15791899E-3

CCSDS_OMM_VERS = 2.0
CREATION_DATE  = 
ORIGINATOR     = 

OBJECT_NAME    = STARLINK-36336
OBJECT_ID      = 2026-035Y
CENTER_NAME    = EARTH
REF_FRAME      = TEME
TIME_SYSTEM    = UTC
MEAN_ELEMENT_THEORY = SGP/SGP4

EPOCH          = 2026-02-27T06:00:02.000160
MEAN_MOTION    = 16.09838337
ECCENTRICITY   = .00008865
INCLINATION    = 97.2808
RA_OF_ASC_NODE = 349.7087
ARG_OF_PERICENTER = 91.0495
MEAN_ANOMALY   = 225.2227

EPHEMERIS_TYPE = 0
CLASSIFICATION_TYPE = U
NORAD_CAT_ID   = 67901
ELEMENT_SET_NO = 999
REV_AT_EPOCH   = 212
BSTAR          = -.67297422E-3
MEAN_MOTION_DOT = -.617921E-2
MEAN_MOTION_DDOT = .15119988E-3

CCSDS_OMM_VERS = 2.0
CREATION_DATE  = 
ORIGINATOR     = 

OBJECT_NAME    = STARLINK-36876
OBJECT_ID      = 2026-035Z
CENTER_NAME    = EARTH
REF_FRAME      = TEME
TIME_SYSTEM    = UTC
MEAN_ELEMENT_THEORY = SGP/SGP4

EPOCH          = 2026-02-27T06:00:02.000160
MEAN_MOTION    = 16.09554691
ECCENTRICITY   = .00009443
INCLINATION    = 97.2810
RA_OF_ASC_NODE = 349.7080
ARG_OF_PERICENTER = 116.3059
MEAN_ANOMALY   = 196.5486

EPHEMERIS_TYPE = 0
CLASSIFICATION_TYPE = U
NORAD_CAT_ID   = 67902
ELEMENT_SET_NO = 999
REV_AT_EPOCH   = 207
BSTAR          = -.69779913E-3
MEAN_MOTION_DOT = -.629033E-2
MEAN_MOTION_DDOT = .15570618E-3

CCSDS_OMM_VERS = 2.0
CREATION_DATE  = 
ORIGINATOR     = 

OBJECT_NAME    = STARLINK-36257
OBJECT_ID      = 2026-035AA
CENTER_NAME    = EARTH
REF_FRAME      = TEME
TIME_SYSTEM    = UTC
MEAN_ELEMENT_THEORY = SGP/SGP4

EPOCH          = 2026-02-27T06:00:02.000160
MEAN_MOTION    = 16.09664849
ECCENTRICITY   = .00007977
INCLINATION    = 97.2807
RA_OF_ASC_NODE = 349.7077
ARG_OF_PERICENTER = 95.4421
MEAN_ANOMALY   = 218.8959

EPHEMERIS_TYPE = 0
CLASSIFICATION_TYPE = U
NORAD_CAT_ID   = 67903
ELEMENT_SET_NO = 999
REV_AT_EPOCH   = 212
BSTAR          = -.68040993E-3
MEAN_MOTION_DOT = -.61778E-2
MEAN_MOTION_DDOT = .15078516E-3

CCSDS_OMM_VERS = 2.0
CREATION_DATE  = 
ORIGINATOR     = 

OBJECT_NAME    = STARLINK-36814
OBJECT_ID      = 2026-036A
CENTER_NAME    = EARTH
REF_FRAME      = TEME
TIME_SYSTEM    = UTC
MEAN_ELEMENT_THEORY = SGP/SGP4

EPOCH          = 2026-02-27T06:00:02.000160
MEAN_MOTION    = 15.96123889
ECCENTRICITY   = .00020416
INCLINATION    = 42.9971
RA_OF_ASC_NODE = 314.0829
ARG_OF_PERICENTER = 271.1077
MEAN_ANOMALY   = 77.5944

EPHEMERIS_TYPE = 0
CLASSIFICATION_TYPE = U
NORAD_CAT_ID   = 67904
ELEMENT_SET_NO = 999
REV_AT_EPOCH   = 197
BSTAR          = -.35408314E-2
MEAN_MOTION_DOT = -.1512716E-1
MEAN_MOTION_DDOT = .67143376E-3

CCSDS_OMM_VERS = 2.0
CREATION_DATE  = 
ORIGINATOR     = 

OBJECT_NAME    = STARLINK-36729
OBJECT_ID      = 2026-036B
CENTER_NAME    = EARTH
REF_FRAME      = TEME
TIME_SYSTEM    = UTC
MEAN_ELEMENT_THEORY = SGP/SGP4

EPOCH          = 2026-02-27T06:00:02.000160
MEAN_MOTION    = 15.96247863
ECCENTRICITY   = .00020717
INCLINATION    = 42.9969
RA_OF_ASC_NODE = 314.0792
ARG_OF_PERICENTER = 276.0045
MEAN_ANOMALY   = 74.0634

EPHEMERIS_TYPE = 0
CLASSIFICATION_TYPE = U
NORAD_CAT_ID   = 67905
ELEMENT_SET_NO = 999
REV_AT_EPOCH   = 197
BSTAR          = -.34906199E-2
MEAN_MOTION_DOT = -.1501561E-1
MEAN_MOTION_DDOT = .66320078E-3

CCSDS_OMM_VERS = 2.0
CREATION_DATE  = 
ORIGINATOR     = 

OBJECT_NAME    = STARLINK-36763
OBJECT_ID      = 2026-036C
CENTER_NAME    = EARTH
REF_FRAME      = TEME
TIME_SYSTEM    = UTC
MEAN_ELEMENT_THEORY = SGP/SGP4

EPOCH          = 2026-02-27T06:00:02.000160
MEAN_MOTION    = 15.96392053
ECCENTRICITY   = .00020532
INCLINATION    = 42.9969
RA_OF_ASC_NODE = 314.0756
ARG_OF_PERICENTER = 274.5711
MEAN_ANOMALY   = 76.9280

EPHEMERIS_TYPE = 0
CLASSIFICATION_TYPE = U
NORAD_CAT_ID   = 67906
ELEMENT_SET_NO = 999
REV_AT_EPOCH   = 197
BSTAR          = -.34492942E-2
MEAN_MOTION_DOT = -.1495621E-1
MEAN_MOTION_DDOT = .65936105E-3

CCSDS_OMM_VERS = 2.0
CREATION_DATE  = 
ORIGINATOR     = 

OBJECT_NAME    = STARLINK-36742
OBJECT_ID      = 2026-036D
CENTER_NAME    = EARTH
REF_FRAME      = TEME
TIME_SYSTEM    = UTC
MEAN_ELEMENT_THEORY = SGP/SGP4

EPOCH          = 2026-02-27T06:00:02.000160
MEAN_MOTION    = 15.96520925
ECCENTRICITY   = .00020623
INCLINATION    = 42.9970
RA_OF_ASC_NODE = 314.0723
ARG_OF_PERICENTER = 271.5450
MEAN_ANOMALY   = 81.2428

EPHEMERIS_TYPE = 0
CLASSIFICATION_TYPE = U
NORAD_CAT_ID   = 67907
ELEMENT_SET_NO = 999
REV_AT_EPOCH   = 197
BSTAR          = -.33900114E-2
MEAN_MOTION_DOT = -.1480541E-1
MEAN_MOTION_DDOT = .64805402E-3

CCSDS_OMM_VERS = 2.0
CREATION_DATE  = 
ORIGINATOR     = 

OBJECT_NAME    = STARLINK-36827
OBJECT_ID      = 2026-036E
CENTER_NAME    = EARTH
REF_FRAME      = TEME
TIME_SYSTEM    = UTC
MEAN_ELEMENT_THEORY = SGP/SGP4

EPOCH          = 2026-02-27T06:00:02.000160
MEAN_MOTION    = 15.96676493
ECCENTRICITY   = .0002069
INCLINATION    = 42.9970
RA_OF_ASC_NODE = 314.0685
ARG_OF_PERICENTER = 273.7113
MEAN_ANOMALY   = 80.6575

EPHEMERIS_TYPE = 0
CLASSIFICATION_TYPE = U
NORAD_CAT_ID   = 67908
ELEMENT_SET_NO = 999
REV_AT_EPOCH   = 197
BSTAR          = -.33641044E-2
MEAN_MOTION_DOT = -.1481832E-1
MEAN_MOTION_DDOT = .65013155E-3

CCSDS_OMM_VERS = 2.0
CREATION_DATE  = 
ORIGINATOR     = 

OBJECT_NAME    = STARLINK-36822
OBJECT_ID      = 2026-036F
CENTER_NAME    = EARTH
REF_FRAME      = TEME
TIME_SYSTEM    = UTC
MEAN_ELEMENT_THEORY = SGP/SGP4

EPOCH          = 2026-02-27T06:00:02.000160
MEAN_MOTION    = 15.96819572
ECCENTRICITY   = .00020594
INCLINATION    = 42.9971
RA_OF_ASC_NODE = 314.0648
ARG_OF_PERICENTER = 272.3612
MEAN_ANOMALY   = 83.4519

EPHEMERIS_TYPE = 0
CLASSIFICATION_TYPE = U
NORAD_CAT_ID   = 67909
ELEMENT_SET_NO = 999
REV_AT_EPOCH   = 197
BSTAR          = -.33239218E-2
MEAN_MOTION_DOT = -.1475788E-1
MEAN_MOTION_DDOT = .64622114E-3

CCSDS_OMM_VERS = 2.0
CREATION_DATE  = 
ORIGINATOR     = 

OBJECT_NAME    = STARLINK-36847
OBJECT_ID      = 2026-036G
CENTER_NAME    = EARTH
REF_FRAME      = TEME
TIME_SYSTEM    = UTC
MEAN_ELEMENT_THEORY = SGP/SGP4

EPOCH          = 2026-02-27T06:00:02.000160
MEAN_MOTION    = 15.96960335
ECCENTRICITY   = .00021579
INCLINATION    = 42.9971
RA_OF_ASC_NODE = 314.0610
ARG_OF_PERICENTER = 273.6154
MEAN_ANOMALY   = 83.6786

EPHEMERIS_TYPE = 0
CLASSIFICATION_TYPE = U
NORAD_CAT_ID   = 67910
ELEMENT_SET_NO = 999
REV_AT_EPOCH   = 197
BSTAR          = -.32875987E-2
MEAN_MOTION_DOT = -.1471133E-1
MEAN_MOTION_DDOT = .64341583E-3

